[
{
    "name": "Rohit Gurav",
    "mobileNo": "9876543210",
    "address": "123, XYZ Road",
    "pinCode": "400001",
    "city": "Mumbai",
    "state": "Maharashtra",
    "isLsp": false
  },
  {
    "name": "Riya Kulkarni",
    "mobileNo": "9988776655",
    "address": "456, ABC Street",
    "pinCode": "411001",
    "city": "Pune",
    "state": "Maharashtra",
    "isLsp": false
  },
  {
    "name": "Amit Patel",
    "mobileNo": "9876543211",
    "address": "789, PQR Colony",
    "pinCode": "380001",
    "city": "Ahmedabad",
    "state": "Gujarat",
    "isLsp": false
  },
  {
    "name": "Shivani Gupta",
    "mobileNo": "9876543212",
    "address": "101, LMN Street",
    "pinCode": "600001",
    "city": "Chennai",
    "state": "Tamil Nadu",
    "isLsp": false
  },
  {
    "name": "Rajesh Kumar",
    "mobileNo": "9876543213",
    "address": "222, EFG Nagar",
    "pinCode": "110001",
    "city": "Delhi",
    "state": "Delhi",
    "isLsp": false
  },
  {
    "name": "Anjali Singh",
    "mobileNo": "9876543214",
    "address": "333, HIJ Colony",
    "pinCode": "500001",
    "city": "Hyderabad",
    "state": "Telangana",
    "isLsp": false
  },
  {
    "name": "Pratiksha Desai",
    "mobileNo": "9876543215",
    "address": "444, STU Street",
    "pinCode": "400005",
    "city": "Mumbai",
    "state": "Maharashtra",
    "isLsp": false
  },
  {
    "name": "Manoj Kumar",
    "mobileNo": "9876543216",
    "address": "555, VWX Colony",
    "pinCode": "560001",
    "city": "Bangalore",
    "state": "Karnataka",
    "isLsp": false
  },
  {
    "name": "Nikita Singhania",
    "mobileNo": "9876543217",
    "address": "666, OPQ Street",
    "pinCode": "700001",
    "city": "Kolkata",
    "state": "West Bengal",
    "isLsp": false
  },
  {
    "name": "Aarav Gupta",
    "mobileNo": "9876543218",
    "address": "777, RST Nagar",
    "pinCode": "411005",
    "city": "Pune",
    "state": "Maharashtra",
    "isLsp": false
  }
]